STARLINK-37192          
1 68342U 26059X   26094.21706988  .00519574  00000+0  24501-2 0  9991
2 68342  53.1595 234.7635 0001756 189.2265 170.8726 15.81145303  2010
STARLINK-37158          
1 68343U 26059Y   26093.77378867  .00245651  00000+0  12081-2 0  9995
2 68343  53.1598 236.9764 0000772  48.2446 311.8643 15.80960957  1948
STARLINK-36380          
1 68344U 26059Z   26093.77530895  .00561796  00000+0  26558-2 0  9992
2 68344  53.1601 236.9864 0000769 125.3243 234.7852 15.80977892  1944
STARLINK-37214          
1 68345U 26059AA  26094.21482200  .00546602  00000+0  25683-2 0  9996
2 68345  53.1592 234.7476 0000738 174.6654 185.4377 15.81149588  2015
STARLINK-37169          
1 68346U 26059AB  26093.77155678  .00465184  00000+0  22265-2 0  9991
2 68346  53.1597 236.9601 0000754  80.7122 279.3986 15.80962223  1948
STARLINK-37136          
1 68347U 26059AC  26093.77080713  .00505004  00000+0  24059-2 0  9998
2 68347  53.1591 236.9557 0000687  52.2840 307.8245 15.80957863  1948
STARLINK-37182          
1 68348U 26059AD  26093.77303798  .00259174  00000+0  12722-2 0  9998
2 68348  53.1596 236.9706 0000372  68.1791 291.9272 15.80964945  1944
STARLINK-37183          
1 68349U 26059AE  26093.77005502  .00467224  00000+0  22350-2 0  9996
2 68349  53.1589 236.9503 0000490 109.2002 250.9074 15.80967952  1941
CENTISPACE-1 OBJECT A   
1 68350U 26060A   26094.31062554 -.00003914  00000+0 -54919-3 0  9992
2 68350  54.9819 337.1039 0012708 323.0134  36.9989 14.74769527  1872
CENTISPACE-1 OBJECT B   
1 68351U 26060B   26094.31006306  .00002392  00000+0  38367-3 0  9992
2 68351  54.9820 337.1023 0013496 325.6829  34.3297 14.74942730  1875
CENTISPACE-1 OBJECT C   
1 68352U 26060C   26094.30850692  .00000128  00000+0  49706-4 0  9992
2 68352  54.9827 337.0944 0012986 331.9602  28.0697 14.75126802  1875
CENTISPACE-1 OBJECT D   
1 68353U 26060D   26094.30850887  .00000128  00000+0  49713-4 0  9997
2 68353  54.9839 337.0978 0012655 334.1737  25.8630 14.75013867  1871
CENTISPACE-1 OBJECT E   
1 68354U 26060E   26094.17215453  .00000150  00000+0  52845-4 0  9992
2 68354  54.9791 337.6409 0013190 330.9696  29.0569 14.75212267  1857
CENTISPACE-1 OBJECT F   
1 68355U 26060F   26094.30775672  .00000128  00000+0  49767-4 0  9996
2 68355  54.9756 337.0824 0013390 331.1181  28.9076 14.75070773  1875
CENTISPACE-1 OBJECT G   
1 68356U 26060G   26094.30690800  .00000131  00000+0  49987-4 0  9994
2 68356  54.9866 337.0894 0013458 332.6730  27.3560 14.75219640  1875
CENTISPACE-1 OBJECT H   
1 68357U 26060H   26092.40903992  .00000123  00000+0  48805-4 0  9992
2 68357  54.9838 344.8287 0013821 328.1926  31.8237 14.75277593  1599
