[{"OBJECT_NAME":"STARLINK-37192","OBJECT_ID":"2026-059X","EPOCH":"2026-04-04T05:12:34.837632","MEAN_MOTION":15.81145303,"ECCENTRICITY":0.00017563,"INCLINATION":53.1595,"RA_OF_ASC_NODE":234.7635,"ARG_OF_PERICENTER":189.2265,"MEAN_ANOMALY":170.8726,"EPHEMERIS_TYPE":0,"CLASSIFICATION_TYPE":"U","NORAD_CAT_ID":68342,"ELEMENT_SET_NO":999,"REV_AT_EPOCH":201,"BSTAR":0.0024500541,"MEAN_MOTION_DOT":0.00519574,"MEAN_MOTION_DDOT":0},{"OBJECT_NAME":"STARLINK-37158","OBJECT_ID":"2026-059Y","EPOCH":"2026-04-03T18:34:15.341088","MEAN_MOTION":15.80960957,"ECCENTRICITY":7.72e-5,"INCLINATION":53.1598,"RA_OF_ASC_NODE":236.9764,"ARG_OF_PERICENTER":48.2446,"MEAN_ANOMALY":311.8643,"EPHEMERIS_TYPE":0,"CLASSIFICATION_TYPE":"U","NORAD_CAT_ID":68343,"ELEMENT_SET_NO":999,"REV_AT_EPOCH":194,"BSTAR":0.0012081368,"MEAN_MOTION_DOT":0.00245651,"MEAN_MOTION_DDOT":0},{"OBJECT_NAME":"STARLINK-36380","OBJECT_ID":"2026-059Z","EPOCH":"2026-04-03T18:36:26.693280","MEAN_MOTION":15.80977892,"ECCENTRICITY":7.697e-5,"INCLINATION":53.1601,"RA_OF_ASC_NODE":236.9864,"ARG_OF_PERICENTER":125.3243,"MEAN_ANOMALY":234.7852,"EPHEMERIS_TYPE":0,"CLASSIFICATION_TYPE":"U","NORAD_CAT_ID":68344,"ELEMENT_SET_NO":999,"REV_AT_EPOCH":194,"BSTAR":0.0026557838,"MEAN_MOTION_DOT":0.00561796,"MEAN_MOTION_DDOT":0},{"OBJECT_NAME":"STARLINK-37214","OBJECT_ID":"2026-059AA","EPOCH":"2026-04-04T05:09:20.620800","MEAN_MOTION":15.81149588,"ECCENTRICITY":7.386e-5,"INCLINATION":53.1592,"RA_OF_ASC_NODE":234.7476,"ARG_OF_PERICENTER":174.6654,"MEAN_ANOMALY":185.4377,"EPHEMERIS_TYPE":0,"CLASSIFICATION_TYPE":"U","NORAD_CAT_ID":68345,"ELEMENT_SET_NO":999,"REV_AT_EPOCH":201,"BSTAR":0.0025683346,"MEAN_MOTION_DOT":0.00546602,"MEAN_MOTION_DDOT":0},{"OBJECT_NAME":"STARLINK-37169","OBJECT_ID":"2026-059AB","EPOCH":"2026-04-03T18:31:02.505792","MEAN_MOTION":15.80962223,"ECCENTRICITY":7.547e-5,"INCLINATION":53.1597,"RA_OF_ASC_NODE":236.9601,"ARG_OF_PERICENTER":80.7122,"MEAN_ANOMALY":279.3986,"EPHEMERIS_TYPE":0,"CLASSIFICATION_TYPE":"U","NORAD_CAT_ID":68346,"ELEMENT_SET_NO":999,"REV_AT_EPOCH":194,"BSTAR":0.0022264548,"MEAN_MOTION_DOT":0.00465184,"MEAN_MOTION_DDOT":0},{"OBJECT_NAME":"STARLINK-37136","OBJECT_ID":"2026-059AC","EPOCH":"2026-04-03T18:29:57.736032","MEAN_MOTION":15.80957863,"ECCENTRICITY":6.87e-5,"INCLINATION":53.1591,"RA_OF_ASC_NODE":236.9557,"ARG_OF_PERICENTER":52.284,"MEAN_ANOMALY":307.8245,"EPHEMERIS_TYPE":0,"CLASSIFICATION_TYPE":"U","NORAD_CAT_ID":68347,"ELEMENT_SET_NO":999,"REV_AT_EPOCH":194,"BSTAR":0.0024059,"MEAN_MOTION_DOT":0.00505004,"MEAN_MOTION_DDOT":0},{"OBJECT_NAME":"STARLINK-37182","OBJECT_ID":"2026-059AD","EPOCH":"2026-04-03T18:33:10.481472","MEAN_MOTION":15.80964945,"ECCENTRICITY":3.725e-5,"INCLINATION":53.1596,"RA_OF_ASC_NODE":236.9706,"ARG_OF_PERICENTER":68.1791,"MEAN_ANOMALY":291.9272,"EPHEMERIS_TYPE":0,"CLASSIFICATION_TYPE":"U","NORAD_CAT_ID":68348,"ELEMENT_SET_NO":999,"REV_AT_EPOCH":194,"BSTAR":0.001272175,"MEAN_MOTION_DOT":0.00259174,"MEAN_MOTION_DDOT":0},{"OBJECT_NAME":"STARLINK-37183","OBJECT_ID":"2026-059AE","EPOCH":"2026-04-03T18:28:52.753728","MEAN_MOTION":15.80967952,"ECCENTRICITY":4.9e-5,"INCLINATION":53.1589,"RA_OF_ASC_NODE":236.9503,"ARG_OF_PERICENTER":109.2002,"MEAN_ANOMALY":250.9074,"EPHEMERIS_TYPE":0,"CLASSIFICATION_TYPE":"U","NORAD_CAT_ID":68349,"ELEMENT_SET_NO":999,"REV_AT_EPOCH":194,"BSTAR":0.002235,"MEAN_MOTION_DOT":0.00467224,"MEAN_MOTION_DDOT":0},{"OBJECT_NAME":"CENTISPACE-1 OBJECT A","OBJECT_ID":"2026-060A","EPOCH":"2026-04-04T07:27:18.046656","MEAN_MOTION":14.74769527,"ECCENTRICITY":0.00127083,"INCLINATION":54.9819,"RA_OF_ASC_NODE":337.1039,"ARG_OF_PERICENTER":323.0134,"MEAN_ANOMALY":36.9989,"EPHEMERIS_TYPE":0,"CLASSIFICATION_TYPE":"U","NORAD_CAT_ID":68350,"ELEMENT_SET_NO":999,"REV_AT_EPOCH":187,"BSTAR":-0.00054918586,"MEAN_MOTION_DOT":-3.914e-5,"MEAN_MOTION_DDOT":0},{"OBJECT_NAME":"CENTISPACE-1 OBJECT B","OBJECT_ID":"2026-060B","EPOCH":"2026-04-04T07:26:29.448384","MEAN_MOTION":14.7494273,"ECCENTRICITY":0.00134968,"INCLINATION":54.982,"RA_OF_ASC_NODE":337.1023,"ARG_OF_PERICENTER":325.6829,"MEAN_ANOMALY":34.3297,"EPHEMERIS_TYPE":0,"CLASSIFICATION_TYPE":"U","NORAD_CAT_ID":68351,"ELEMENT_SET_NO":999,"REV_AT_EPOCH":187,"BSTAR":0.00038366626,"MEAN_MOTION_DOT":2.392e-5,"MEAN_MOTION_DDOT":0},{"OBJECT_NAME":"CENTISPACE-1 OBJECT C","OBJECT_ID":"2026-060C","EPOCH":"2026-04-04T07:24:14.997888","MEAN_MOTION":14.75126802,"ECCENTRICITY":0.00129868,"INCLINATION":54.9827,"RA_OF_ASC_NODE":337.0944,"ARG_OF_PERICENTER":331.9602,"MEAN_ANOMALY":28.0697,"EPHEMERIS_TYPE":0,"CLASSIFICATION_TYPE":"U","NORAD_CAT_ID":68352,"ELEMENT_SET_NO":999,"REV_AT_EPOCH":187,"BSTAR":4.9705671e-5,"MEAN_MOTION_DOT":1.28e-6,"MEAN_MOTION_DDOT":0},{"OBJECT_NAME":"CENTISPACE-1 OBJECT D","OBJECT_ID":"2026-060D","EPOCH":"2026-04-04T07:24:15.166368","MEAN_MOTION":14.75013867,"ECCENTRICITY":0.00126559,"INCLINATION":54.9839,"RA_OF_ASC_NODE":337.0978,"ARG_OF_PERICENTER":334.1737,"MEAN_ANOMALY":25.863,"EPHEMERIS_TYPE":0,"CLASSIFICATION_TYPE":"U","NORAD_CAT_ID":68353,"ELEMENT_SET_NO":999,"REV_AT_EPOCH":187,"BSTAR":4.9713491e-5,"MEAN_MOTION_DOT":1.28e-6,"MEAN_MOTION_DDOT":0},{"OBJECT_NAME":"CENTISPACE-1 OBJECT E","OBJECT_ID":"2026-060E","EPOCH":"2026-04-04T04:07:54.151392","MEAN_MOTION":14.75212267,"ECCENTRICITY":0.00131905,"INCLINATION":54.9791,"RA_OF_ASC_NODE":337.6409,"ARG_OF_PERICENTER":330.9696,"MEAN_ANOMALY":29.0569,"EPHEMERIS_TYPE":0,"CLASSIFICATION_TYPE":"U","NORAD_CAT_ID":68354,"ELEMENT_SET_NO":999,"REV_AT_EPOCH":185,"BSTAR":5.2844661e-5,"MEAN_MOTION_DOT":1.5e-6,"MEAN_MOTION_DDOT":0},{"OBJECT_NAME":"CENTISPACE-1 OBJECT F","OBJECT_ID":"2026-060F","EPOCH":"2026-04-04T07:23:10.180608","MEAN_MOTION":14.75070773,"ECCENTRICITY":0.00133908,"INCLINATION":54.9756,"RA_OF_ASC_NODE":337.0824,"ARG_OF_PERICENTER":331.1181,"MEAN_ANOMALY":28.9076,"EPHEMERIS_TYPE":0,"CLASSIFICATION_TYPE":"U","NORAD_CAT_ID":68355,"ELEMENT_SET_NO":999,"REV_AT_EPOCH":187,"BSTAR":4.9767441e-5,"MEAN_MOTION_DOT":1.28e-6,"MEAN_MOTION_DDOT":0},{"OBJECT_NAME":"CENTISPACE-1 OBJECT G","OBJECT_ID":"2026-060G","EPOCH":"2026-04-04T07:21:56.851200","MEAN_MOTION":14.7521964,"ECCENTRICITY":0.00134587,"INCLINATION":54.9866,"RA_OF_ASC_NODE":337.0894,"ARG_OF_PERICENTER":332.673,"MEAN_ANOMALY":27.356,"EPHEMERIS_TYPE":0,"CLASSIFICATION_TYPE":"U","NORAD_CAT_ID":68356,"ELEMENT_SET_NO":999,"REV_AT_EPOCH":187,"BSTAR":4.9987437e-5,"MEAN_MOTION_DOT":1.31e-6,"MEAN_MOTION_DDOT":0},{"OBJECT_NAME":"CENTISPACE-1 OBJECT H","OBJECT_ID":"2026-060H","EPOCH":"2026-04-02T09:49:01.049088","MEAN_MOTION":14.75277593,"ECCENTRICITY":0.00138214,"INCLINATION":54.9838,"RA_OF_ASC_NODE":344.8287,"ARG_OF_PERICENTER":328.1926,"MEAN_ANOMALY":31.8237,"EPHEMERIS_TYPE":0,"CLASSIFICATION_TYPE":"U","NORAD_CAT_ID":68357,"ELEMENT_SET_NO":999,"REV_AT_EPOCH":159,"BSTAR":4.8805088e-5,"MEAN_MOTION_DOT":1.23e-6,"MEAN_MOTION_DDOT":0}]
